IRIDIUM 33 DEB          
1 35844U 97051SU  17345.70627477  .00009977  00000-0  93323-3 0  9991
2 35844  86.3065 133.0948 0017196 177.6726 182.4586 14.93889347446657
